JUPITER 3 (ECHOSTAR 24) 
1 57479U 23108A   26195.45242454 -.00000157  00000+0  00000+0 0  9991
2 57479   0.0108  40.5711 0001108  70.6612 248.7625  1.00272339 10915
GALAXY 37 (G-37)        
1 57493U 23112A   26194.96357502  .00000042  00000+0  00000+0 0  9990
2 57493   0.0218  73.5270 0001739  44.1230  34.0616  1.00271325 10810
LUDI TANCE-4 01A        
1 57624U 23120A   26195.97559863 -.00000185  00000+0  00000+0 0  9990
2 57624  15.0865 193.2798 0001488  16.8155 163.4500  1.00275760 10825
TJS-10                  
1 58204U 23169A   26196.78922244 -.00000261  00000+0  00000+0 0  9990
2 58204   2.6161  80.1472 0004080 115.1904 114.7974  1.00273627  9822
ZHONGXING-6E            
1 58253U 23172A   26195.70499280 -.00000370  00000+0  00000+0 0  9999
2 58253   0.0192  86.2131 0002698  23.7417 191.9164  1.00272476  9938
YAOGAN-41               
1 58582U 23197A   26196.65277422 -.00000369  00000+0  00000+0 0  9996
2 58582   3.0778 313.5933 0014285 198.5209 139.4751  1.00265429  9600
OVZON-3                 
1 58698U 24003A   26195.87143991  .00000043  00000+0  00000+0 0  9995
2 58698   0.0136 108.2863 0000368 217.1758 340.6622  1.00270475  7729
INSAT-3DS               
1 58990U 24033A   26196.57335508 -.00000166  00000+0  00000+0 0  9995
2 58990   0.0901 264.6548 0001074 224.7763  92.4622  1.00270876 47356
MERAH PUTIH 2           
1 58995U 24035A   26195.34489189 -.00000365  00000+0  00000+0 0  9992
2 58995   0.0215  82.0854 0001062  34.4456  52.7926  1.00270544  8864
TJS-11                  
1 59020U 24037A   26196.52661755 -.00000369  00000+0  00000+0 0  9990
2 59020   4.1626 327.4370 0001830 149.7553 118.3249  1.00273521  8860
HULIANWAN GAOGUI-01 (H*)
1 59069U 24040A   26196.56370678  .00000146  00000+0  00000+0 0  9994
2 59069   0.0734 333.3745 0001724  62.7563 133.8265  1.00274292  7615
EUTELSAT 36D            
1 59346U 24059A   26196.49289185  .00000146  00000+0  00000+0 0  9996
2 59346   0.0176  47.0031 0000200 205.4788 254.1647  1.00270745  8434
PAKSAT-MM1              
1 59915U 24104A   26194.56857404  .00000150  00000+0  00000+0 0  9995
2 59915   0.0311 143.3666 0001963 313.2921  77.6097  1.00269751  7795
ASTRA 1P (SES-24)       
1 60086U 24115A   26194.35091053  .00000118  00000+0  00000+0 0  9999
2 60086   0.0666 329.5187 0001497 236.9138 230.3347  1.00281209  7460
GOES 19                 
1 60133U 24119A   26196.54214461 -.00000258  00000+0  00000+0 0  9995
2 60133   0.0103 100.1257 0000432 110.8305 202.4055  1.00271363  7246
ZHONGXING-3A            
1 60179U 24122A   26196.71977416 -.00000324  00000+0  00000+0 0  9998
2 60179   0.0283 118.3269 0001716  48.6608 127.2796  1.00270021  7593
TURKSAT 6A              
1 60233U 24127A   26196.49410520  .00000000  00000+0  00000+0 0  9997
2 60233   0.0175 204.7927 0002917 324.0407 344.3612  1.00269762  7305
HULIANWAN GAOGUI-02 (H*)
1 60327U 24135A   26196.65846159 -.00000184  00000+0  00000+0 0  9993
2 60327   0.0465 358.0661 0006066  11.4400 314.0658  1.00273512  7782
ZHONGXING-4A            
1 60606U 24151A   26196.52995333 -.00000372  00000+0  00000+0 0  9995
2 60606   1.2426 270.4906 0000406 296.2264  35.6107  1.00267142  7039
HULIANWAN GAOGUI-03 (H*)
1 61503U 24181A   26196.61308072 -.00000251  00000+0  00000+0 0  9999
2 61503   0.0509 358.9002 0001074  94.6122 343.5302  1.00270797  7116
DSN-3 (KIRAMEKI-3)      
1 61733U 24198A   26196.58560726  .00000000  00000+0  00000+0 0  9995
2 61733   0.0259  61.4094 0000882  76.7241 150.1971  1.00269442  6207
KOREASAT 6A             
1 61910U 24206A   26196.58002844 -.00000372  00000+0  00000+0 0  9997
2 61910   0.0145  98.0215 0000732 355.7286 164.4892  1.00269917  6120
OPTUS-X (ADS-01)        
1 62006U 24212A   26196.20183799 -.00000153  00000+0  00000+0 0  9996
2 62006   0.0135  63.8448 0002386  90.1044   8.1442  1.00270006  6040
GSAT-N2 (GSAT-20)       
1 62028U 24214A   26196.62058611 -.00000029  00000+0  00000+0 0  9994
2 62028   0.0732 262.1958 0002637 143.9633 178.6435  1.00271152  6180
SXM-9                   
1 62259U 24234A   26196.50447520 -.00000215  00000+0  00000+0 0  9997
2 62259   0.0170 340.3893 0004934 337.5225  71.8756  1.00269454  5854
TJS-12                  
1 62374U 24246A   26196.58612726 -.00000241  00000+0  00000+0 0  9997
2 62374   0.6107 302.1390 0001794  97.4096 251.4069  1.00268878  5846
NUVIEW ALPHA            
1 62455U 24252B   26196.25545237 -.00000225  00000+0  00000+0 0  9992
2 62455   0.0436  27.4031 0000983  54.2618 220.2947  1.00270943  4107
AGILA                   
1 62456U 24252C   26196.60739123 -.00000192  00000+0  00000+0 0  9994
2 62456   0.0493 128.1618 0001180 351.5480 184.5583  1.00270462  5443
NUVIEW BRAVO            
1 62457U 24252D   26196.25545237 -.00000224  00000+0  00000+0 0  9993
2 62457   0.0698 162.7343 0001502 343.8112 155.4099  1.00270612  4078
THURAYA-4               
1 62483U 25001A   26196.63708750  .00000129  00000+0  00000+0 0  9991
2 62483   0.0209  71.9670 0000182 220.0286 275.1410  1.00272605  4464
SHIJIAN-25 (SJ-25)      
1 62485U 25002A   26196.79329299 -.00000364  00000+0  00000+0 0  9990
2 62485   5.1794  60.9819 0052117 175.4963 109.8555  1.00263213  5643
